[{"OBJECT_NAME":"STARLINK-34055","OBJECT_ID":"2025-092R","EPOCH":"2025-09-16T12:20:12.686208","MEAN_MOTION":15.27595291,"ECCENTRICITY":7.059e-5,"INCLINATION":42.9968,"RA_OF_ASC_NODE":76.4428,"ARG_OF_PERICENTER":266.8985,"MEAN_ANOMALY":93.1786,"EPHEMERIS_TYPE":0,"CLASSIFICATION_TYPE":"U","NORAD_CAT_ID":63819,"ELEMENT_SET_NO":999,"REV_AT_EPOCH":2197,"BSTAR":0.0008614787,"MEAN_MOTION_DOT":0.00023531,"MEAN_MOTION_DDOT":0},{"OBJECT_NAME":"STARLINK-33794","OBJECT_ID":"2025-092S","EPOCH":"2025-09-16T12:10:57.788256","MEAN_MOTION":15.27572978,"ECCENTRICITY":0.00015227,"INCLINATION":42.9964,"RA_OF_ASC_NODE":76.411,"ARG_OF_PERICENTER":264.4687,"MEAN_ANOMALY":95.5991,"EPHEMERIS_TYPE":0,"CLASSIFICATION_TYPE":"U","NORAD_CAT_ID":63820,"ELEMENT_SET_NO":999,"REV_AT_EPOCH":2197,"BSTAR":0.00018801187,"MEAN_MOTION_DOT":4.914e-5,"MEAN_MOTION_DDOT":0},{"OBJECT_NAME":"STARLINK-34047","OBJECT_ID":"2025-092T","EPOCH":"2025-09-16T12:05:24.750816","MEAN_MOTION":15.27587666,"ECCENTRICITY":0.00012443,"INCLINATION":42.9987,"RA_OF_ASC_NODE":76.3811,"ARG_OF_PERICENTER":269.6567,"MEAN_ANOMALY":90.4142,"EPHEMERIS_TYPE":0,"CLASSIFICATION_TYPE":"U","NORAD_CAT_ID":63821,"ELEMENT_SET_NO":999,"REV_AT_EPOCH":2202,"BSTAR":0.00097426906,"MEAN_MOTION_DOT":0.00026651,"MEAN_MOTION_DDOT":0},{"OBJECT_NAME":"STARLINK-34094","OBJECT_ID":"2025-092U","EPOCH":"2025-09-16T04:30:08.123328","MEAN_MOTION":15.27510545,"ECCENTRICITY":0.00021714,"INCLINATION":43.0017,"RA_OF_ASC_NODE":74.8165,"ARG_OF_PERICENTER":299.281,"MEAN_ANOMALY":60.7824,"EPHEMERIS_TYPE":0,"CLASSIFICATION_TYPE":"U","NORAD_CAT_ID":63822,"ELEMENT_SET_NO":999,"REV_AT_EPOCH":2201,"BSTAR":-0.00091419296,"MEAN_MOTION_DOT":-0.00025281,"MEAN_MOTION_DDOT":0},{"OBJECT_NAME":"STARLINK-34043","OBJECT_ID":"2025-092V","EPOCH":"2025-09-16T04:33:35.906688","MEAN_MOTION":15.27566749,"ECCENTRICITY":0.00023209,"INCLINATION":43.0011,"RA_OF_ASC_NODE":73.9714,"ARG_OF_PERICENTER":269.9527,"MEAN_ANOMALY":90.1059,"EPHEMERIS_TYPE":0,"CLASSIFICATION_TYPE":"U","NORAD_CAT_ID":63823,"ELEMENT_SET_NO":999,"REV_AT_EPOCH":2197,"BSTAR":0.0010444508,"MEAN_MOTION_DOT":0.0002858,"MEAN_MOTION_DDOT":0},{"OBJECT_NAME":"STARLINK-34025","OBJECT_ID":"2025-092W","EPOCH":"2025-09-16T04:55:07.188384","MEAN_MOTION":15.27589859,"ECCENTRICITY":7.556e-5,"INCLINATION":43.0011,"RA_OF_ASC_NODE":77.58,"ARG_OF_PERICENTER":272.9904,"MEAN_ANOMALY":87.0862,"EPHEMERIS_TYPE":0,"CLASSIFICATION_TYPE":"U","NORAD_CAT_ID":63824,"ELEMENT_SET_NO":999,"REV_AT_EPOCH":2187,"BSTAR":0.00054847018,"MEAN_MOTION_DOT":0.00014866,"MEAN_MOTION_DDOT":0},{"OBJECT_NAME":"STARLINK-33874","OBJECT_ID":"2025-092X","EPOCH":"2025-09-16T11:58:00.440544","MEAN_MOTION":15.27593488,"ECCENTRICITY":0.00049391,"INCLINATION":43.0018,"RA_OF_ASC_NODE":76.3419,"ARG_OF_PERICENTER":283.4399,"MEAN_ANOMALY":76.5902,"EPHEMERIS_TYPE":0,"CLASSIFICATION_TYPE":"U","NORAD_CAT_ID":63825,"ELEMENT_SET_NO":999,"REV_AT_EPOCH":2202,"BSTAR":0.0010601224,"MEAN_MOTION_DOT":0.00029045,"MEAN_MOTION_DDOT":0},{"OBJECT_NAME":"STARLINK-33781","OBJECT_ID":"2025-092Y","EPOCH":"2025-09-16T04:33:07.254720","MEAN_MOTION":15.27608248,"ECCENTRICITY":0.00028467,"INCLINATION":42.9999,"RA_OF_ASC_NODE":78.3255,"ARG_OF_PERICENTER":276.6018,"MEAN_ANOMALY":83.451,"EPHEMERIS_TYPE":0,"CLASSIFICATION_TYPE":"U","NORAD_CAT_ID":63826,"ELEMENT_SET_NO":999,"REV_AT_EPOCH":2197,"BSTAR":0.001086957,"MEAN_MOTION_DOT":0.00029797,"MEAN_MOTION_DDOT":0},{"OBJECT_NAME":"STARLINK-33891","OBJECT_ID":"2025-092Z","EPOCH":"2025-09-16T04:42:23.548032","MEAN_MOTION":15.27585308,"ECCENTRICITY":0.00019839,"INCLINATION":42.9979,"RA_OF_ASC_NODE":78.3666,"ARG_OF_PERICENTER":272.6244,"MEAN_ANOMALY":87.438,"EPHEMERIS_TYPE":0,"CLASSIFICATION_TYPE":"U","NORAD_CAT_ID":63827,"ELEMENT_SET_NO":999,"REV_AT_EPOCH":2186,"BSTAR":0.00086057406,"MEAN_MOTION_DOT":0.00023499,"MEAN_MOTION_DDOT":0},{"OBJECT_NAME":"STARLINK-33903","OBJECT_ID":"2025-092AA","EPOCH":"2025-09-16T11:50:36.800736","MEAN_MOTION":15.27603691,"ECCENTRICITY":0.00024281,"INCLINATION":43.0006,"RA_OF_ASC_NODE":76.2959,"ARG_OF_PERICENTER":266.7853,"MEAN_ANOMALY":93.2721,"EPHEMERIS_TYPE":0,"CLASSIFICATION_TYPE":"U","NORAD_CAT_ID":63828,"ELEMENT_SET_NO":999,"REV_AT_EPOCH":2202,"BSTAR":0.0010736339,"MEAN_MOTION_DOT":0.00029422,"MEAN_MOTION_DDOT":0},{"OBJECT_NAME":"STARLINK-33889","OBJECT_ID":"2025-092AB","EPOCH":"2025-09-16T11:30:15.644736","MEAN_MOTION":15.27608748,"ECCENTRICITY":0.0001109,"INCLINATION":42.9975,"RA_OF_ASC_NODE":76.2052,"ARG_OF_PERICENTER":37.6179,"MEAN_ANOMALY":322.475,"EPHEMERIS_TYPE":0,"CLASSIFICATION_TYPE":"U","NORAD_CAT_ID":63829,"ELEMENT_SET_NO":999,"REV_AT_EPOCH":2191,"BSTAR":0.0012393105,"MEAN_MOTION_DOT":0.00034028,"MEAN_MOTION_DDOT":0},{"OBJECT_NAME":"STARLINK-33984","OBJECT_ID":"2025-092AC","EPOCH":"2025-09-16T05:24:42.142464","MEAN_MOTION":15.27602101,"ECCENTRICITY":0.00022748,"INCLINATION":43.0026,"RA_OF_ASC_NODE":77.7243,"ARG_OF_PERICENTER":269.5504,"MEAN_ANOMALY":90.5087,"EPHEMERIS_TYPE":0,"CLASSIFICATION_TYPE":"U","NORAD_CAT_ID":63830,"ELEMENT_SET_NO":999,"REV_AT_EPOCH":2193,"BSTAR":-0.00036353672,"MEAN_MOTION_DOT":-0.0001026,"MEAN_MOTION_DDOT":0},{"OBJECT_NAME":"STARLINK-33940","OBJECT_ID":"2025-092AD","EPOCH":"2025-09-15T23:22:53.682816","MEAN_MOTION":15.27644574,"ECCENTRICITY":0.00029912,"INCLINATION":43.0032,"RA_OF_ASC_NODE":79.2894,"ARG_OF_PERICENTER":271.7605,"MEAN_ANOMALY":88.2904,"EPHEMERIS_TYPE":0,"CLASSIFICATION_TYPE":"U","NORAD_CAT_ID":63831,"ELEMENT_SET_NO":999,"REV_AT_EPOCH":2194,"BSTAR":0.0015626666,"MEAN_MOTION_DOT":0.00043079,"MEAN_MOTION_DDOT":0},{"OBJECT_NAME":"STARLINK-33978","OBJECT_ID":"2025-092AE","EPOCH":"2025-09-16T05:17:19.478976","MEAN_MOTION":15.27608738,"ECCENTRICITY":0.00027873,"INCLINATION":43.0072,"RA_OF_ASC_NODE":77.6999,"ARG_OF_PERICENTER":264.7242,"MEAN_ANOMALY":95.3292,"EPHEMERIS_TYPE":0,"CLASSIFICATION_TYPE":"U","NORAD_CAT_ID":63832,"ELEMENT_SET_NO":999,"REV_AT_EPOCH":2198,"BSTAR":0.0011326387,"MEAN_MOTION_DOT":0.00031066,"MEAN_MOTION_DDOT":0},{"OBJECT_NAME":"STARLINK-34018","OBJECT_ID":"2025-093A","EPOCH":"2025-09-16T12:27:52.971840","MEAN_MOTION":15.27606519,"ECCENTRICITY":0.00014651,"INCLINATION":43.004,"RA_OF_ASC_NODE":341.6572,"ARG_OF_PERICENTER":253.928,"MEAN_ANOMALY":106.1411,"EPHEMERIS_TYPE":0,"CLASSIFICATION_TYPE":"U","NORAD_CAT_ID":63836,"ELEMENT_SET_NO":999,"REV_AT_EPOCH":2133,"BSTAR":0.0013782876,"MEAN_MOTION_DOT":0.00037891,"MEAN_MOTION_DDOT":0},{"OBJECT_NAME":"STARLINK-34053","OBJECT_ID":"2025-093B","EPOCH":"2025-09-16T12:24:11.345472","MEAN_MOTION":15.27589169,"ECCENTRICITY":5.526e-5,"INCLINATION":43.0035,"RA_OF_ASC_NODE":341.6344,"ARG_OF_PERICENTER":287.2207,"MEAN_ANOMALY":72.8584,"EPHEMERIS_TYPE":0,"CLASSIFICATION_TYPE":"U","NORAD_CAT_ID":63837,"ELEMENT_SET_NO":999,"REV_AT_EPOCH":2127,"BSTAR":0.00081728665,"MEAN_MOTION_DOT":0.00022302,"MEAN_MOTION_DDOT":0}]
