STARLINK-34055          
1 63819U 25092R   25259.51403572  .00023531  00000+0  86148-3 0  9998
2 63819  42.9968  76.4428 0000705 266.8985  93.1786 15.27595291 21973
STARLINK-33794          
1 63820U 25092S   25259.50761329  .00004914  00000+0  18801-3 0  9991
2 63820  42.9964  76.4110 0001522 264.4687  95.5991 15.27572978 21971
STARLINK-34047          
1 63821U 25092T   25259.50375869  .00026651  00000+0  97427-3 0  9995
2 63821  42.9987  76.3811 0001244 269.6567  90.4142 15.27587666 22028
STARLINK-34094          
1 63822U 25092U   25259.18759402 -.00025281  00000+0 -91419-3 0  9994
2 63822  43.0017  74.8165 0002171 299.2810  60.7824 15.27510545 22018
STARLINK-34043          
1 63823U 25092V   25259.18999892  .00028580  00000+0  10445-2 0  9996
2 63823  43.0011  73.9714 0002320 269.9527  90.1059 15.27566749 21976
STARLINK-34025          
1 63824U 25092W   25259.20494431  .00014866  00000+0  54847-3 0  9996
2 63824  43.0011  77.5800 0000755 272.9904  87.0862 15.27589859 21879
STARLINK-33874          
1 63825U 25092X   25259.49861621  .00029045  00000+0  10601-2 0  9991
2 63825  43.0018  76.3419 0004939 283.4399  76.5902 15.27593488 22022
STARLINK-33781          
1 63826U 25092Y   25259.18966730  .00029797  00000+0  10870-2 0  9997
2 63826  42.9999  78.3255 0002846 276.6018  83.4510 15.27608248 21972
STARLINK-33891          
1 63827U 25092Z   25259.19610588  .00023499  00000+0  86057-3 0  9990
2 63827  42.9979  78.3666 0001983 272.6244  87.4380 15.27585308 21863
STARLINK-33903          
1 63828U 25092AA  25259.49348149  .00029422  00000+0  10736-2 0  9997
2 63828  43.0006  76.2959 0002428 266.7853  93.2721 15.27603691 22023
STARLINK-33889          
1 63829U 25092AB  25259.47934774  .00034028  00000+0  12393-2 0  9990
2 63829  42.9975  76.2052 0001109  37.6179 322.4750 15.27608748 21916
STARLINK-33984          
1 63830U 25092AC  25259.22548776 -.00010260  00000+0 -36354-3 0  9996
2 63830  43.0026  77.7243 0002274 269.5504  90.5087 15.27602101 21932
STARLINK-33940          
1 63831U 25092AD  25258.97423244  .00043079  00000+0  15627-2 0  9991
2 63831  43.0032  79.2894 0002991 271.7605  88.2904 15.27644574 21945
STARLINK-33978          
1 63832U 25092AE  25259.22036434  .00031066  00000+0  11326-2 0  9997
2 63832  43.0072  77.6999 0002787 264.7242  95.3292 15.27608738 21985
STARLINK-34018          
1 63836U 25093A   25259.51936310  .00037891  00000+0  13783-2 0  9997
2 63836  43.0040 341.6572 0001465 253.9280 106.1411 15.27606519 21337
STARLINK-34053          
1 63837U 25093B   25259.51679798  .00022302  00000+0  81729-3 0  9999
2 63837  43.0035 341.6344 0000552 287.2207  72.8584 15.27589169 21278
